     2.100          NAVIGATION                              RINEX VERSION / TYPE
fic2rin                                 01/17/2009 01:12:24 PGM / RUN BY / DATE
                                                            END OF HEADER
 5 09  1 16 12  0  0.0 -.552212819457D-03 -.559339241590D-10  .000000000000D+00
     .102000000000D+03 -.463125000000D+02  .518200156545D-08 -.193236022542D+01
    -.232271850109D-05  .938300113194D-02  .519305467606D-05  .515363352966D+04
     .475200000000D+06  .175088644028D-06 -.205611286913D+00  .465661287308D-07
     .945142582697D+00  .271031250000D+03  .129581661276D+01 -.834034740895D-08
    -.357157734196D-12  .100000000000D+01  .151400000000D+04  .000000000000D+00
     .240000000000D+01  .000000000000D+00 -.419095158577D-08  .102000000000D+03
     .468006000000D+06  .400000000000D+01
 6 09  1 16 12  0  0.0  .905157066882D-04 -.122781784739D-10  .000000000000D+00
     .810000000000D+02 -.825000000000D+01  .506306803996D-08 -.218108674807D+01
    -.387430191040D-06  .564652541652D-02  .104177743196D-04  .515371418762D+04
     .475200000000D+06  .782310962677D-07  .891686498390D+00  .100582838058D-06
     .933662802666D+00  .161343750000D+03 -.147910203330D+01 -.810819488172D-08
    -.810748056625D-10  .100000000000D+01  .151400000000D+04  .000000000000D+00
     .240000000000D+01  .000000000000D+00 -.465661287308D-08  .810000000000D+02
     .468006000000D+06  .400000000000D+01
 7 09  1 16 12  0  0.0  .233077444136D-04 -.113686837722D-12  .000000000000D+00
     .780000000000D+02  .247187500000D+02  .458197657200D-08  .995728987881D-01
     .125542283058D-05  .230617157649D-02  .673905014992D-05  .515367871666D+04
     .475200000000D+06  .447034835815D-07 -.115813046725D+01  .223517417908D-07
     .965458670269D+00  .251468750000D+03  .292111099897D+01 -.820891336276D-08
     .400016662300D-09  .100000000000D+01  .151400000000D+04  .000000000000D+00
     .240000000000D+01  .000000000000D+00 -.107102096081D-07  .780000000000D+02
     .468006000000D+06  .400000000000D+01
 8 09  1 16 12  0  0.0 -.186596065760D-03 -.159161572810D-11  .000000000000D+00
     .580000000000D+02  .164062500000D+02  .412088593715D-08 -.566825523244D+00
     .771135091782D-06  .105104177492D-01  .645592808723D-05  .515368663216D+04
     .475200000000D+06  .162050127983D-06 -.110046640442D+01 -.126659870148D-06
     .986651073566D+00  .266375000000D+03  .297209395443D+01 -.802747723379D-08
     .437161066656D-09  .100000000000D+01  .151400000000D+04  .000000000000D+00
     .240000000000D+01  .000000000000D+00 -.419095158577D-08  .580000000000D+02
     .468006000000D+06  .400000000000D+01
10 09  1 16 12  0  0.0 -.960286706686D-05 -.568434188608D-12  .000000000000D+00
     .790000000000D+02 -.425000000000D+01  .467840916023D-08  .280226458312D+01
    -.277534127235D-06  .846239388920D-02  .519677996635D-05  .515377024460D+04
     .475200000000D+06 -.484287738800D-07  .305525765076D+01 -.614672899246D-07
     .960457731628D+00  .281906250000D+03  .580076958511D+00 -.821462788651D-08
    -.228580949885D-09  .100000000000D+01  .151400000000D+04  .000000000000D+00
     .340000000000D+01  .000000000000D+00 -.279396772385D-08  .790000000000D+02
     .468006000000D+06  .400000000000D+01
12 09  1 16 12  0  0.0 -.325055327266D-03  .341060513165D-11  .000000000000D+00
     .950000000000D+02 -.518750000000D+02  .477877048354D-08  .306474586240D+00
    -.276044011116D-05  .312638434116D-02  .609643757343D-05  .515373436737D+04
     .475200000000D+06  .186264514923D-07 -.106891905734D+00 -.391155481339D-07
     .966147039056D+00  .268812500000D+03 -.823500571361D+00 -.826391565383D-08
    -.989326923723D-10  .100000000000D+01  .151400000000D+04  .000000000000D+00
     .240000000000D+01  .000000000000D+00 -.116415321827D-07  .950000000000D+02
     .468006000000D+06  .400000000000D+01
13 09  1 16 12  0  0.0  .285167247057D-03  .136424205266D-11  .000000000000D+00
     .600000000000D+01 -.931250000000D+01  .349228832497D-08  .260910821354D+01
    -.480562448502D-06  .368581106886D-02  .104662030935D-04  .515377029610D+04
     .475200000000D+06  .484287738800D-07 -.215203382114D+01 -.931322574615D-08
     .995315884685D+00  .193843750000D+03  .150746550010D+01 -.754495713489D-08
    -.314298806093D-10  .100000000000D+01  .151400000000D+04  .000000000000D+00
     .240000000000D+01  .000000000000D+00 -.111758708954D-07  .600000000000D+01
     .468006000000D+06  .400000000000D+01
14 09  1 16 12  0  0.0 -.167524442077D-03  .522959453519D-11  .000000000000D+00
     .850000000000D+02 -.737500000000D+01  .362729394850D-08  .218323767798D+01
    -.337138772011D-06  .443704228383D-02  .925362110138D-05  .515356870651D+04
     .475200000000D+06 -.298023223877D-07 -.217072191057D+01 -.949949026108D-07
     .988919436304D+00  .214843750000D+03 -.210067275695D+01 -.762567478282D-08
     .353586156854D-10  .100000000000D+01  .151400000000D+04  .000000000000D+00
     .240000000000D+01  .000000000000D+00 -.931322574615D-08  .850000000000D+02
     .468006000000D+06  .400000000000D+01
15 09  1 16 12  0  0.0 -.242963898927D-03 -.557065504836D-11  .000000000000D+00
     .290000000000D+02 -.173125000000D+02  .445304262996D-08  .276068375534D+01
    -.871717929840D-06  .136661378201D-02  .905059278011D-05  .515357303429D+04
     .475200000000D+06  .260770320892D-07 -.221906899926D+01 -.558793544769D-08
     .957107312756D+00  .202406250000D+03 -.815831760222D+00 -.807390773924D-08
    -.400016662300D-10  .100000000000D+01  .151400000000D+04  .000000000000D+00
     .240000000000D+01  .000000000000D+00 -.977888703346D-08  .290000000000D+02
     .468006000000D+06  .400000000000D+01
16 09  1 16 12  0  0.0  .816155225039D-04 -.272848410532D-11  .000000000000D+00
     .500000000000D+01 -.577500000000D+02  .467233747875D-08 -.222019538620D+01
    -.295788049698D-05  .496049015783D-02  .629946589470D-05  .515374248505D+04
     .475200000000D+06 -.145286321640D-06 -.901544112931D-01 -.316649675369D-07
     .967689703726D+00  .263375000000D+03 -.385982855518D+00 -.813248160764D-08
    -.147863301957D-09  .100000000000D+01  .151400000000D+04  .000000000000D+00
     .240000000000D+01  .000000000000D+00 -.977888703346D-08  .500000000000D+01
     .468006000000D+06  .400000000000D+01
17 09  1 16 12  0  0.0  .444254837930D-04  .102318153949D-11  .000000000000D+00
     .900000000000D+02 -.141250000000D+02  .440589780904D-08  .297914826683D+01
    -.752508640289D-06  .412189902272D-02  .118464231491D-04  .515363513184D+04
     .475200000000D+06 -.223517417908D-07  .951332029632D+00 -.800937414169D-07
     .959630335884D+00  .148406250000D+03 -.277027970211D+01 -.783996942334D-08
    -.136077096729D-09  .100000000000D+01  .151400000000D+04  .000000000000D+00
     .340000000000D+01  .000000000000D+00 -.102445483208D-07  .900000000000D+02
     .468006000000D+06  .400000000000D+01
18 09  1 16 12  0  0.0 -.925650820136D-04  .363797880709D-11  .000000000000D+00
     .840000000000D+02 -.103125000000D+02  .492270505042D-08 -.209410065014D+01
    -.590458512306D-06  .989098730497D-02  .501982867718D-05  .515375004578D+04
     .475200000000D+06  .875443220139D-07  .306268458303D+01 -.124797224998D-06
     .944516834117D+00  .274062500000D+03 -.243713487435D+01 -.828141638280D-08
    -.123933733766D-09  .100000000000D+01  .151400000000D+04  .000000000000D+00
     .240000000000D+01  .000000000000D+00 -.107102096081D-07  .840000000000D+02
     .468006000000D+06  .400000000000D+01
19 09  1 16 12  0  0.0  .337604433298D-04 -.454747350886D-12  .000000000000D+00
     .300000000000D+02 -.937500000000D-01  .453804617070D-08  .224047193256D+01
     .163912773132D-06  .506460759789D-02  .109765678644D-04  .515377844620D+04
     .475200000000D+06  .670552253723D-07  .100776262577D+01  .113621354103D-06
     .957327629681D+00  .165125000000D+03 -.393347141242D+00 -.790390065776D-08
    -.129291099779D-09  .100000000000D+01  .151400000000D+04  .000000000000D+00
     .240000000000D+01  .000000000000D+00 -.144354999065D-07  .300000000000D+02
     .468006000000D+06  .400000000000D+01
20 09  1 16 12  0  0.0  .935192219913D-04 -.102318153949D-11  .000000000000D+00
     .102000000000D+03 -.124062500000D+02  .509414076284D-08 -.194907307408D+01
    -.601634383202D-06  .385782821104D-02  .483728945255D-05  .515369457436D+04
     .475200000000D+06  .428408384323D-07  .300895559428D+01  .745058059692D-08
     .944081806168D+00  .276843750000D+03  .130860358178D+01 -.846428114271D-08
    -.258939357292D-09  .100000000000D+01  .151400000000D+04  .000000000000D+00
     .240000000000D+01  .000000000000D+00 -.651925802231D-08  .102000000000D+03
     .468006000000D+06  .400000000000D+01
21 09  1 16 12  0  0.0  .336165539920D-04 -.170530256582D-11  .000000000000D+00
     .820000000000D+02  .604375000000D+02  .519557355935D-08 -.828660956369D+00
     .317394733429D-05  .145354990382D-01  .648759305477D-05  .515365150070D+04
     .475200000000D+06  .325962901115D-06  .200426006843D+01  .745058059692D-07
     .934388649952D+00  .238656250000D+03 -.265379401765D+01 -.852535511526D-08
     .825034365993D-10  .100000000000D+01  .151400000000D+04  .000000000000D+00
     .240000000000D+01  .000000000000D+00 -.116415321827D-07  .820000000000D+02
     .468006000000D+06  .400000000000D+01
22 09  1 16 12  0  0.0  .206547789276D-03 -.568434188608D-12  .000000000000D+00
     .175000000000D+03 -.703125000000D+01  .497699302602D-08  .304281176548D+01
    -.426545739174D-06  .493910163641D-02  .513345003128D-05  .515366767502D+04
     .475200000000D+06  .465661287308D-07  .306865726939D+01 -.447034835815D-07
     .942176173968D+00  .270781250000D+03 -.181352106857D+01 -.832498962638D-08
    -.234295473633D-09  .100000000000D+01  .151400000000D+04  .000000000000D+00
     .340000000000D+01  .000000000000D+00 -.181607902050D-07  .175000000000D+03
     .468006000000D+06  .400000000000D+01
